ONEWEB-0583             
1 54650U 22166J   26113.11170959  .00000039  00000+0  62412-4 0  9993
2 54650  87.9212 254.9643 0001961 103.2356 256.8997 13.21827213164255
ONEWEB-0584             
1 54651U 22166K   26113.13188563  .00000012  00000+0 -28941-5 0  9998
2 54651  87.9212 254.9471 0001861 105.7638 254.3701 13.21828698164247
ONEWEB-0585             
1 54652U 22166L   26113.30681569  .00000024  00000+0  27397-4 0  9997
2 54652  87.9211 254.8969 0001821  94.6281 265.5061 13.21825666164272
ONEWEB-0586             
1 54653U 22166M   26113.32028273  .00000084  00000+0  17090-3 0  9991
2 54653  87.9210 254.9204 0002018 103.5737 256.5622 13.21824339164279
ONEWEB-0587             
1 54654U 22166N   26113.10329522  .00000042  00000+0  69817-4 0  9998
2 54654  87.9223 254.9319 0001750  88.4369 271.6966 13.21826799164401
ONEWEB-0589             
1 54655U 22166P   26113.31691814  .00000021  00000+0  19762-4 0  9999
2 54655  87.9208 254.9085 0002270 121.6598 238.4757 13.21824004164290
ONEWEB-0590             
1 54656U 22166Q   26113.11493504  .00000099  00000+0  20724-3 0  9998
2 54656  87.9218 254.9335 0001435 107.5313 252.5977 13.21826963164253
ONEWEB-0591             
1 54657U 22166R   26113.12684822  .00000044  00000+0  75945-4 0  9991
2 54657  87.9214 254.9502 0001788 100.8329 259.3006 13.21826896164286
ONEWEB-0592             
1 54658U 22166S   26113.13021021  .00000010  00000+0 -76641-5 0  9998
2 54658  87.9220 254.9230 0001875  99.6651 260.4695 13.21826765164161
ONEWEB-0593             
1 54659U 22166T   26112.92497588 -.00000039  00000+0 -12510-3 0  9995
2 54659  87.9212 254.9796 0002024 101.6973 258.4388 13.21824134164241
ONEWEB-0594             
1 54660U 22166U   26113.32364577  .00000022  00000+0  21266-4 0  9992
2 54660  87.9209 254.9173 0001844  96.6696 263.4648 13.21823999164313
ONEWEB-0595             
1 54661U 22166V   26113.14870392  .00000026  00000+0  31811-4 0  9991
2 54661  87.9219 254.9283 0001695  94.5817 265.5511 13.21823735164267
ONEWEB-0596             
1 54662U 22166W   26113.12348502  .00000001  00000+0 -28726-4 0  9998
2 54662  87.9211 254.9484 0001783  97.5090 262.6246 13.21826778164260
ONEWEB-0597             
1 54663U 22166X   26113.10498289  .00000076  00000+0  15193-3 0  9999
2 54663  87.9210 254.9562 0001961 102.5563 257.5790 13.21826898164267
ONEWEB-0600             
1 54664U 22166Y   26113.31355428  .00000020  00000+0  15693-4 0  9995
2 54664  87.9211 254.9057 0002092  98.1433 261.9938 13.21823658164264
ONEWEB-0601             
1 54665U 22166Z   26112.92666310 -.00000062  00000+0 -18166-3 0  9992
2 54665  87.9209 254.9995 0001977 107.4996 252.6354 13.21823718164404
