[{"OBJECT_NAME":"ONEWEB-0583","OBJECT_ID":"2022-166J","EPOCH":"2026-04-23T02:40:51.708576","MEAN_MOTION":13.21827213,"ECCENTRICITY":0.0001961,"INCLINATION":87.9212,"RA_OF_ASC_NODE":254.9643,"ARG_OF_PERICENTER":103.2356,"MEAN_ANOMALY":256.8997,"EPHEMERIS_TYPE":0,"CLASSIFICATION_TYPE":"U","NORAD_CAT_ID":54650,"ELEMENT_SET_NO":999,"REV_AT_EPOCH":16425,"BSTAR":6.2412e-05,"MEAN_MOTION_DOT":3.9e-07,"MEAN_MOTION_DDOT":0.0},{"OBJECT_NAME":"ONEWEB-0584","OBJECT_ID":"2022-166K","EPOCH":"2026-04-23T03:09:54.918432","MEAN_MOTION":13.21828698,"ECCENTRICITY":0.0001861,"INCLINATION":87.9212,"RA_OF_ASC_NODE":254.9471,"ARG_OF_PERICENTER":105.7638,"MEAN_ANOMALY":254.3701,"EPHEMERIS_TYPE":0,"CLASSIFICATION_TYPE":"U","NORAD_CAT_ID":54651,"ELEMENT_SET_NO":999,"REV_AT_EPOCH":16424,"BSTAR":-2.8941000000000004e-06,"MEAN_MOTION_DOT":1.2e-07,"MEAN_MOTION_DDOT":0.0},{"OBJECT_NAME":"ONEWEB-0585","OBJECT_ID":"2022-166L","EPOCH":"2026-04-23T07:21:48.875616","MEAN_MOTION":13.21825666,"ECCENTRICITY":0.0001821,"INCLINATION":87.9211,"RA_OF_ASC_NODE":254.8969,"ARG_OF_PERICENTER":94.6281,"MEAN_ANOMALY":265.5061,"EPHEMERIS_TYPE":0,"CLASSIFICATION_TYPE":"U","NORAD_CAT_ID":54652,"ELEMENT_SET_NO":999,"REV_AT_EPOCH":16427,"BSTAR":2.7397000000000002e-05,"MEAN_MOTION_DOT":2.4e-07,"MEAN_MOTION_DDOT":0.0},{"OBJECT_NAME":"ONEWEB-0586","OBJECT_ID":"2022-166M","EPOCH":"2026-04-23T07:41:12.427872","MEAN_MOTION":13.21824339,"ECCENTRICITY":0.0002018,"INCLINATION":87.921,"RA_OF_ASC_NODE":254.9204,"ARG_OF_PERICENTER":103.5737,"MEAN_ANOMALY":256.5622,"EPHEMERIS_TYPE":0,"CLASSIFICATION_TYPE":"U","NORAD_CAT_ID":54653,"ELEMENT_SET_NO":999,"REV_AT_EPOCH":16427,"BSTAR":0.0001709,"MEAN_MOTION_DOT":8.4e-07,"MEAN_MOTION_DDOT":0.0},{"OBJECT_NAME":"ONEWEB-0587","OBJECT_ID":"2022-166N","EPOCH":"2026-04-23T02:28:44.707008","MEAN_MOTION":13.21826799,"ECCENTRICITY":0.000175,"INCLINATION":87.9223,"RA_OF_ASC_NODE":254.9319,"ARG_OF_PERICENTER":88.4369,"MEAN_ANOMALY":271.6966,"EPHEMERIS_TYPE":0,"CLASSIFICATION_TYPE":"U","NORAD_CAT_ID":54654,"ELEMENT_SET_NO":999,"REV_AT_EPOCH":16440,"BSTAR":6.9817e-05,"MEAN_MOTION_DOT":4.2e-07,"MEAN_MOTION_DDOT":0.0},{"OBJECT_NAME":"ONEWEB-0589","OBJECT_ID":"2022-166P","EPOCH":"2026-04-23T07:36:21.727296","MEAN_MOTION":13.21824004,"ECCENTRICITY":0.000227,"INCLINATION":87.9208,"RA_OF_ASC_NODE":254.9085,"ARG_OF_PERICENTER":121.6598,"MEAN_ANOMALY":238.4757,"EPHEMERIS_TYPE":0,"CLASSIFICATION_TYPE":"U","NORAD_CAT_ID":54655,"ELEMENT_SET_NO":999,"REV_AT_EPOCH":16429,"BSTAR":1.9762e-05,"MEAN_MOTION_DOT":2.1e-07,"MEAN_MOTION_DDOT":0.0},{"OBJECT_NAME":"ONEWEB-0590","OBJECT_ID":"2022-166Q","EPOCH":"2026-04-23T02:45:30.387456","MEAN_MOTION":13.21826963,"ECCENTRICITY":0.0001435,"INCLINATION":87.9218,"RA_OF_ASC_NODE":254.9335,"ARG_OF_PERICENTER":107.5313,"MEAN_ANOMALY":252.5977,"EPHEMERIS_TYPE":0,"CLASSIFICATION_TYPE":"U","NORAD_CAT_ID":54656,"ELEMENT_SET_NO":999,"REV_AT_EPOCH":16425,"BSTAR":0.00020724,"MEAN_MOTION_DOT":9.9e-07,"MEAN_MOTION_DDOT":0.0},{"OBJECT_NAME":"ONEWEB-0591","OBJECT_ID":"2022-166R","EPOCH":"2026-04-23T03:02:39.686208","MEAN_MOTION":13.21826896,"ECCENTRICITY":0.0001788,"INCLINATION":87.9214,"RA_OF_ASC_NODE":254.9502,"ARG_OF_PERICENTER":100.8329,"MEAN_ANOMALY":259.3006,"EPHEMERIS_TYPE":0,"CLASSIFICATION_TYPE":"U","NORAD_CAT_ID":54657,"ELEMENT_SET_NO":999,"REV_AT_EPOCH":16428,"BSTAR":7.5945e-05,"MEAN_MOTION_DOT":4.4e-07,"MEAN_MOTION_DDOT":0.0},{"OBJECT_NAME":"ONEWEB-0592","OBJECT_ID":"2022-166S","EPOCH":"2026-04-23T03:07:30.162144","MEAN_MOTION":13.21826765,"ECCENTRICITY":0.0001875,"INCLINATION":87.922,"RA_OF_ASC_NODE":254.923,"ARG_OF_PERICENTER":99.6651,"MEAN_ANOMALY":260.4695,"EPHEMERIS_TYPE":0,"CLASSIFICATION_TYPE":"U","NORAD_CAT_ID":54658,"ELEMENT_SET_NO":999,"REV_AT_EPOCH":16416,"BSTAR":-7.664100000000002e-06,"MEAN_MOTION_DOT":1e-07,"MEAN_MOTION_DDOT":0.0},{"OBJECT_NAME":"ONEWEB-0593","OBJECT_ID":"2022-166T","EPOCH":"2026-04-22T22:11:57.916032","MEAN_MOTION":13.21824134,"ECCENTRICITY":0.0002024,"INCLINATION":87.9212,"RA_OF_ASC_NODE":254.9796,"ARG_OF_PERICENTER":101.6973,"MEAN_ANOMALY":258.4388,"EPHEMERIS_TYPE":0,"CLASSIFICATION_TYPE":"U","NORAD_CAT_ID":54659,"ELEMENT_SET_NO":999,"REV_AT_EPOCH":16424,"BSTAR":-0.0001251,"MEAN_MOTION_DOT":-3.9e-07,"MEAN_MOTION_DDOT":0.0},{"OBJECT_NAME":"ONEWEB-0594","OBJECT_ID":"2022-166U","EPOCH":"2026-04-23T07:46:02.994528","MEAN_MOTION":13.21823999,"ECCENTRICITY":0.0001844,"INCLINATION":87.9209,"RA_OF_ASC_NODE":254.9173,"ARG_OF_PERICENTER":96.6696,"MEAN_ANOMALY":263.4648,"EPHEMERIS_TYPE":0,"CLASSIFICATION_TYPE":"U","NORAD_CAT_ID":54660,"ELEMENT_SET_NO":999,"REV_AT_EPOCH":16431,"BSTAR":2.1266e-05,"MEAN_MOTION_DOT":2.2e-07,"MEAN_MOTION_DDOT":0.0},{"OBJECT_NAME":"ONEWEB-0595","OBJECT_ID":"2022-166V","EPOCH":"2026-04-23T03:34:08.018688","MEAN_MOTION":13.21823735,"ECCENTRICITY":0.0001695,"INCLINATION":87.9219,"RA_OF_ASC_NODE":254.9283,"ARG_OF_PERICENTER":94.5817,"MEAN_ANOMALY":265.5511,"EPHEMERIS_TYPE":0,"CLASSIFICATION_TYPE":"U","NORAD_CAT_ID":54661,"ELEMENT_SET_NO":999,"REV_AT_EPOCH":16426,"BSTAR":3.1811000000000004e-05,"MEAN_MOTION_DOT":2.6e-07,"MEAN_MOTION_DDOT":0.0},{"OBJECT_NAME":"ONEWEB-0596","OBJECT_ID":"2022-166W","EPOCH":"2026-04-23T02:57:49.105728","MEAN_MOTION":13.21826778,"ECCENTRICITY":0.0001783,"INCLINATION":87.9211,"RA_OF_ASC_NODE":254.9484,"ARG_OF_PERICENTER":97.509,"MEAN_ANOMALY":262.6246,"EPHEMERIS_TYPE":0,"CLASSIFICATION_TYPE":"U","NORAD_CAT_ID":54662,"ELEMENT_SET_NO":999,"REV_AT_EPOCH":16426,"BSTAR":-2.8726000000000002e-05,"MEAN_MOTION_DOT":1e-08,"MEAN_MOTION_DDOT":0.0},{"OBJECT_NAME":"ONEWEB-0597","OBJECT_ID":"2022-166X","EPOCH":"2026-04-23T02:31:10.521696","MEAN_MOTION":13.21826898,"ECCENTRICITY":0.0001961,"INCLINATION":87.921,"RA_OF_ASC_NODE":254.9562,"ARG_OF_PERICENTER":102.5563,"MEAN_ANOMALY":257.579,"EPHEMERIS_TYPE":0,"CLASSIFICATION_TYPE":"U","NORAD_CAT_ID":54663,"ELEMENT_SET_NO":999,"REV_AT_EPOCH":16426,"BSTAR":0.00015193000000000002,"MEAN_MOTION_DOT":7.6e-07,"MEAN_MOTION_DDOT":0.0},{"OBJECT_NAME":"ONEWEB-0600","OBJECT_ID":"2022-166Y","EPOCH":"2026-04-23T07:31:31.089792","MEAN_MOTION":13.21823658,"ECCENTRICITY":0.0002092,"INCLINATION":87.9211,"RA_OF_ASC_NODE":254.9057,"ARG_OF_PERICENTER":98.1433,"MEAN_ANOMALY":261.9938,"EPHEMERIS_TYPE":0,"CLASSIFICATION_TYPE":"U","NORAD_CAT_ID":54664,"ELEMENT_SET_NO":999,"REV_AT_EPOCH":16426,"BSTAR":1.5693e-05,"MEAN_MOTION_DOT":2e-07,"MEAN_MOTION_DDOT":0.0},{"OBJECT_NAME":"ONEWEB-0601","OBJECT_ID":"2022-166Z","EPOCH":"2026-04-22T22:14:23.691840","MEAN_MOTION":13.21823718,"ECCENTRICITY":0.0001977,"INCLINATION":87.9209,"RA_OF_ASC_NODE":254.9995,"ARG_OF_PERICENTER":107.4996,"MEAN_ANOMALY":252.6354,"EPHEMERIS_TYPE":0,"CLASSIFICATION_TYPE":"U","NORAD_CAT_ID":54665,"ELEMENT_SET_NO":999,"REV_AT_EPOCH":16440,"BSTAR":-0.00018166,"MEAN_MOTION_DOT":-6.2e-07,"MEAN_MOTION_DDOT":0.0}]